STARLINK-35422          
1 66068U 25235L   25318.58789451  .00093953  00000+0  16736-2 0  9992
2 66068  53.1597  61.6883 0001102 121.7751 238.3365 15.49368779  5248
STARLINK-35279          
1 66069U 25235M   25318.78108169  .00079826  00000+0  14274-2 0  9994
2 66069  53.1598  60.7620 0000864  74.2514 285.8590 15.49334172  5306
STARLINK-35295          
1 66070U 25235N   25318.71588193  .00080289  00000+0  14345-2 0  9992
2 66070  53.1598  61.0662 0000806  77.1167 282.9932 15.49355242  5297
STARLINK-35323          
1 66071U 25235P   25318.65171458  .00045616  00000+0  82225-3 0  9996
2 66071  53.1596  61.3757 0000939  90.9415 269.1701 15.49350228  5289
STARLINK-35299          
1 66072U 25235Q   25318.83334491  .00054603  00000+0  13656-2 0  9992
2 66072  53.1600  60.7578 0001296  72.7186  95.8360 15.39613537  5391
STARLINK-35274          
1 66073U 25235R   25318.83334491  .00037209  00000+0  93670-3 0  9991
2 66073  53.1597  60.7059 0001061  79.5122 114.9424 15.39586575  5391
STARLINK-35321          
1 66074U 25235S   25318.83334491  .00042624  00000+0  10715-2 0  9997
2 66074  53.1593  60.6539 0001263  88.1803 132.0658 15.39566276  5392
STARLINK-35131          
1 66075U 25235T   25318.83334491 -.02043111  00000+0 -50980-1 0  9991
2 66075  53.1595  60.5093 0001227  81.9512 210.3852 15.43204611  5390
STARLINK-34801          
1 66076U 25235U   25318.83334491  .00042949  00000+0  10789-2 0  9990
2 66076  53.1591  60.6023 0001334  69.2777 176.6864 15.39584753  5392
STARLINK-35129          
1 66077U 25235V   25318.83334491 -.00248119  00000+0 -63703-2 0  9994
2 66077  53.1594  60.5520 0001451  74.5557 197.1067 15.39744833  5392
STARLINK-35116          
1 66078U 25235W   25318.45510728  .00105002  00000+0  18715-2 0  9996
2 66078  53.1596  62.2789 0001077 103.7761 256.3368 15.49296965  5253
STARLINK-35402          
1 66079U 25235X   25318.77730869  .00093166  00000+0  16605-2 0  9995
2 66079  53.1595  60.7343 0001342 134.6418 225.4700 15.49356644  5303
