CCSDS_OMM_VERS = 2.0
CREATION_DATE  = 
ORIGINATOR     = 

OBJECT_NAME    = STARLINK-35422
OBJECT_ID      = 2025-235L
CENTER_NAME    = EARTH
REF_FRAME      = TEME
TIME_SYSTEM    = UTC
MEAN_ELEMENT_THEORY = SGP/SGP4

EPOCH          = 2025-11-14T14:06:34.085664
MEAN_MOTION    = 15.49368779
ECCENTRICITY   = .0001102
INCLINATION    = 53.1597
RA_OF_ASC_NODE = 61.6883
ARG_OF_PERICENTER = 121.7751
MEAN_ANOMALY   = 238.3365

EPHEMERIS_TYPE = 0
CLASSIFICATION_TYPE = U
NORAD_CAT_ID   = 66068
ELEMENT_SET_NO = 999
REV_AT_EPOCH   = 524
BSTAR          = .16736E-2
MEAN_MOTION_DOT = .93953E-3
MEAN_MOTION_DDOT = 0

CCSDS_OMM_VERS = 2.0
CREATION_DATE  = 
ORIGINATOR     = 

OBJECT_NAME    = STARLINK-35279
OBJECT_ID      = 2025-235M
CENTER_NAME    = EARTH
REF_FRAME      = TEME
TIME_SYSTEM    = UTC
MEAN_ELEMENT_THEORY = SGP/SGP4

EPOCH          = 2025-11-14T18:44:45.458016
MEAN_MOTION    = 15.49334172
ECCENTRICITY   = .0000864
INCLINATION    = 53.1598
RA_OF_ASC_NODE = 60.7620
ARG_OF_PERICENTER = 74.2514
MEAN_ANOMALY   = 285.8590

EPHEMERIS_TYPE = 0
CLASSIFICATION_TYPE = U
NORAD_CAT_ID   = 66069
ELEMENT_SET_NO = 999
REV_AT_EPOCH   = 530
BSTAR          = .14274E-2
MEAN_MOTION_DOT = .79826E-3
MEAN_MOTION_DDOT = 0

CCSDS_OMM_VERS = 2.0
CREATION_DATE  = 
ORIGINATOR     = 

OBJECT_NAME    = STARLINK-35295
OBJECT_ID      = 2025-235N
CENTER_NAME    = EARTH
REF_FRAME      = TEME
TIME_SYSTEM    = UTC
MEAN_ELEMENT_THEORY = SGP/SGP4

EPOCH          = 2025-11-14T17:10:52.198752
MEAN_MOTION    = 15.49355242
ECCENTRICITY   = .0000806
INCLINATION    = 53.1598
RA_OF_ASC_NODE = 61.0662
ARG_OF_PERICENTER = 77.1167
MEAN_ANOMALY   = 282.9932

EPHEMERIS_TYPE = 0
CLASSIFICATION_TYPE = U
NORAD_CAT_ID   = 66070
ELEMENT_SET_NO = 999
REV_AT_EPOCH   = 529
BSTAR          = .14345E-2
MEAN_MOTION_DOT = .80289E-3
MEAN_MOTION_DDOT = 0

CCSDS_OMM_VERS = 2.0
CREATION_DATE  = 
ORIGINATOR     = 

OBJECT_NAME    = STARLINK-35323
OBJECT_ID      = 2025-235P
CENTER_NAME    = EARTH
REF_FRAME      = TEME
TIME_SYSTEM    = UTC
MEAN_ELEMENT_THEORY = SGP/SGP4

EPOCH          = 2025-11-14T15:38:28.139712
MEAN_MOTION    = 15.49350228
ECCENTRICITY   = .0000939
INCLINATION    = 53.1596
RA_OF_ASC_NODE = 61.3757
ARG_OF_PERICENTER = 90.9415
MEAN_ANOMALY   = 269.1701

EPHEMERIS_TYPE = 0
CLASSIFICATION_TYPE = U
NORAD_CAT_ID   = 66071
ELEMENT_SET_NO = 999
REV_AT_EPOCH   = 528
BSTAR          = .82225E-3
MEAN_MOTION_DOT = .45616E-3
MEAN_MOTION_DDOT = 0

CCSDS_OMM_VERS = 2.0
CREATION_DATE  = 
ORIGINATOR     = 

OBJECT_NAME    = STARLINK-35299
OBJECT_ID      = 2025-235Q
CENTER_NAME    = EARTH
REF_FRAME      = TEME
TIME_SYSTEM    = UTC
MEAN_ELEMENT_THEORY = SGP/SGP4

EPOCH          = 2025-11-14T20:00:01.000224
MEAN_MOTION    = 15.39613537
ECCENTRICITY   = .0001296
INCLINATION    = 53.1600
RA_OF_ASC_NODE = 60.7578
ARG_OF_PERICENTER = 72.7186
MEAN_ANOMALY   = 95.8360

EPHEMERIS_TYPE = 0
CLASSIFICATION_TYPE = U
NORAD_CAT_ID   = 66072
ELEMENT_SET_NO = 999
REV_AT_EPOCH   = 539
BSTAR          = .13656E-2
MEAN_MOTION_DOT = .54603E-3
MEAN_MOTION_DDOT = 0

CCSDS_OMM_VERS = 2.0
CREATION_DATE  = 
ORIGINATOR     = 

OBJECT_NAME    = STARLINK-35274
OBJECT_ID      = 2025-235R
CENTER_NAME    = EARTH
REF_FRAME      = TEME
TIME_SYSTEM    = UTC
MEAN_ELEMENT_THEORY = SGP/SGP4

EPOCH          = 2025-11-14T20:00:01.000224
MEAN_MOTION    = 15.39586575
ECCENTRICITY   = .0001061
INCLINATION    = 53.1597
RA_OF_ASC_NODE = 60.7059
ARG_OF_PERICENTER = 79.5122
MEAN_ANOMALY   = 114.9424

EPHEMERIS_TYPE = 0
CLASSIFICATION_TYPE = U
NORAD_CAT_ID   = 66073
ELEMENT_SET_NO = 999
REV_AT_EPOCH   = 539
BSTAR          = .9367E-3
MEAN_MOTION_DOT = .37209E-3
MEAN_MOTION_DDOT = 0

CCSDS_OMM_VERS = 2.0
CREATION_DATE  = 
ORIGINATOR     = 

OBJECT_NAME    = STARLINK-35321
OBJECT_ID      = 2025-235S
CENTER_NAME    = EARTH
REF_FRAME      = TEME
TIME_SYSTEM    = UTC
MEAN_ELEMENT_THEORY = SGP/SGP4

EPOCH          = 2025-11-14T20:00:01.000224
MEAN_MOTION    = 15.39566276
ECCENTRICITY   = .0001263
INCLINATION    = 53.1593
RA_OF_ASC_NODE = 60.6539
ARG_OF_PERICENTER = 88.1803
MEAN_ANOMALY   = 132.0658

EPHEMERIS_TYPE = 0
CLASSIFICATION_TYPE = U
NORAD_CAT_ID   = 66074
ELEMENT_SET_NO = 999
REV_AT_EPOCH   = 539
BSTAR          = .10715E-2
MEAN_MOTION_DOT = .42624E-3
MEAN_MOTION_DDOT = 0

CCSDS_OMM_VERS = 2.0
CREATION_DATE  = 
ORIGINATOR     = 

OBJECT_NAME    = STARLINK-35131
OBJECT_ID      = 2025-235T
CENTER_NAME    = EARTH
REF_FRAME      = TEME
TIME_SYSTEM    = UTC
MEAN_ELEMENT_THEORY = SGP/SGP4

EPOCH          = 2025-11-14T20:00:01.000224
MEAN_MOTION    = 15.43204611
ECCENTRICITY   = .0001227
INCLINATION    = 53.1595
RA_OF_ASC_NODE = 60.5093
ARG_OF_PERICENTER = 81.9512
MEAN_ANOMALY   = 210.3852

EPHEMERIS_TYPE = 0
CLASSIFICATION_TYPE = U
NORAD_CAT_ID   = 66075
ELEMENT_SET_NO = 999
REV_AT_EPOCH   = 539
BSTAR          = -.5098E-1
MEAN_MOTION_DOT = -.2043111E-1
MEAN_MOTION_DDOT = 0

CCSDS_OMM_VERS = 2.0
CREATION_DATE  = 
ORIGINATOR     = 

OBJECT_NAME    = STARLINK-34801
OBJECT_ID      = 2025-235U
CENTER_NAME    = EARTH
REF_FRAME      = TEME
TIME_SYSTEM    = UTC
MEAN_ELEMENT_THEORY = SGP/SGP4

EPOCH          = 2025-11-14T20:00:01.000224
MEAN_MOTION    = 15.39584753
ECCENTRICITY   = .0001334
INCLINATION    = 53.1591
RA_OF_ASC_NODE = 60.6023
ARG_OF_PERICENTER = 69.2777
MEAN_ANOMALY   = 176.6864

EPHEMERIS_TYPE = 0
CLASSIFICATION_TYPE = U
NORAD_CAT_ID   = 66076
ELEMENT_SET_NO = 999
REV_AT_EPOCH   = 539
BSTAR          = .10789E-2
MEAN_MOTION_DOT = .42949E-3
MEAN_MOTION_DDOT = 0

CCSDS_OMM_VERS = 2.0
CREATION_DATE  = 
ORIGINATOR     = 

OBJECT_NAME    = STARLINK-35129
OBJECT_ID      = 2025-235V
CENTER_NAME    = EARTH
REF_FRAME      = TEME
TIME_SYSTEM    = UTC
MEAN_ELEMENT_THEORY = SGP/SGP4

EPOCH          = 2025-11-14T20:00:01.000224
MEAN_MOTION    = 15.39744833
ECCENTRICITY   = .0001451
INCLINATION    = 53.1594
RA_OF_ASC_NODE = 60.5520
ARG_OF_PERICENTER = 74.5557
MEAN_ANOMALY   = 197.1067

EPHEMERIS_TYPE = 0
CLASSIFICATION_TYPE = U
NORAD_CAT_ID   = 66077
ELEMENT_SET_NO = 999
REV_AT_EPOCH   = 539
BSTAR          = -.63703E-2
MEAN_MOTION_DOT = -.248119E-2
MEAN_MOTION_DDOT = 0

CCSDS_OMM_VERS = 2.0
CREATION_DATE  = 
ORIGINATOR     = 

OBJECT_NAME    = STARLINK-35116
OBJECT_ID      = 2025-235W
CENTER_NAME    = EARTH
REF_FRAME      = TEME
TIME_SYSTEM    = UTC
MEAN_ELEMENT_THEORY = SGP/SGP4

EPOCH          = 2025-11-14T10:55:21.268992
MEAN_MOTION    = 15.49296965
ECCENTRICITY   = .0001077
INCLINATION    = 53.1596
RA_OF_ASC_NODE = 62.2789
ARG_OF_PERICENTER = 103.7761
MEAN_ANOMALY   = 256.3368

EPHEMERIS_TYPE = 0
CLASSIFICATION_TYPE = U
NORAD_CAT_ID   = 66078
ELEMENT_SET_NO = 999
REV_AT_EPOCH   = 525
BSTAR          = .18715E-2
MEAN_MOTION_DOT = .105002E-2
MEAN_MOTION_DDOT = 0

CCSDS_OMM_VERS = 2.0
CREATION_DATE  = 
ORIGINATOR     = 

OBJECT_NAME    = STARLINK-35402
OBJECT_ID      = 2025-235X
CENTER_NAME    = EARTH
REF_FRAME      = TEME
TIME_SYSTEM    = UTC
MEAN_ELEMENT_THEORY = SGP/SGP4

EPOCH          = 2025-11-14T18:39:19.470816
MEAN_MOTION    = 15.49356644
ECCENTRICITY   = .0001342
INCLINATION    = 53.1595
RA_OF_ASC_NODE = 60.7343
ARG_OF_PERICENTER = 134.6418
MEAN_ANOMALY   = 225.4700

EPHEMERIS_TYPE = 0
CLASSIFICATION_TYPE = U
NORAD_CAT_ID   = 66079
ELEMENT_SET_NO = 999
REV_AT_EPOCH   = 530
BSTAR          = .16605E-2
MEAN_MOTION_DOT = .93166E-3
MEAN_MOTION_DDOT = 0

